NORAD_CAT_ID,OBJECT_NAME,OBJECT_TYPE,EPOCH,MEAN_MOTION,ECCENTRICITY,INCLINATION,RA_OF_ASC_NODE,ARG_OF_PERICENTER,MEAN_ANOMALY,BSTAR,MEAN_MOTION_DOT,MEAN_MOTION_DDOT,TLE_LINE0,TLE_LINE1,TLE_LINE2,SEMIMAJOR_AXIS,PERIOD,APOGEE,PERIGEE,DECAYED
55663.0,STARLINK-5473,PAYLOAD,2023-07-10 03:07:29,15.69914337,0.0003194,70.0006,109.6768,259.1643,100.9193,-2.6913e-05,-3.446e-05,0.0,0 STARLINK-5473,1 55663U 23021AM  23191.13019759 -.00003446  00000-0 -26913-4 0  9998,2 55663  70.0006 109.6768 0003194 259.1643 100.9193 15.69914337 22885,6737.279,91.725,361.296,356.992,0.0
55663.0,STARLINK-5473,PAYLOAD,2023-07-11 05:07:16,15.69923943,0.0003516,69.9997,106.63,264.198,95.8815,2.1177e-05,2.334e-05,0.0,0 STARLINK-5473,1 55663U 23021AM  23192.21338233  .00002334  00000-0  21177-4 0  9999,2 55663  69.9997 106.6300 0003516 264.1980  95.8815 15.69923943 23054,6737.252,91.724,361.485,356.748,0.0
55663.0,STARLINK-5473,PAYLOAD,2023-07-12 05:35:18,15.69927858,0.0003838,70.0,103.7654,261.1959,98.8802,4.3823e-05,5.061e-05,0.0,0 STARLINK-5473,1 55663U 23021AM  23193.23284902  .00005061  00000-0  43823-4 0  9997,2 55663  70.0000 103.7654 0003838 261.1959  98.8802 15.69927858 23218,6737.24,91.724,361.691,356.52,0.0
55663.0,STARLINK-5473,PAYLOAD,2023-07-12 19:21:04,15.69923616,0.0003343,69.9998,102.152,265.5132,94.5682,1.179e-05,1.205e-05,0.0,0 STARLINK-5473,1 55663U 23021AM  23193.80630342  .00001205  00000-0  11790-4 0  9997,2 55663  69.9998 102.1520 0003343 265.5132  94.5682 15.69923616 23305,6737.253,91.724,361.37,356.865,0.0
55663.0,STARLINK-5473,PAYLOAD,2023-07-13 02:59:49,15.6993592,0.0003182,69.9999,101.2557,267.0125,93.0707,3.2112e-05,3.652e-05,0.0,0 STARLINK-5473,1 55663U 23021AM  23194.12488070  .00003652  00000-0  32112-4 0  9991,2 55663  69.9999 101.2557 0003182 267.0125  93.0707 15.69935920 23354,6737.217,91.723,361.226,356.939,0.0
55663.0,STARLINK-5473,PAYLOAD,2023-07-13 21:20:51,15.6992106,0.0002851,70.0007,99.1075,241.9004,118.1903,1.8231e-06,7e-08,0.0,0 STARLINK-5473,1 55663U 23021AM  23194.88948895  .00000007  00000-0  18231-5 0  9998,2 55663  70.0007  99.1075 0002851 241.9004 118.1903 15.69921060 23476,6737.26,91.724,361.046,357.204,0.0
55663.0,STARLINK-5473,PAYLOAD,2023-07-14 04:59:37,15.6992941,0.0003525,69.9991,98.2095,272.1858,87.8934,1.9195e-05,2.096e-05,0.0,0 STARLINK-5473,1 55663U 23021AM  23195.20806878  .00002096  00000-0  19195-4 0  9998,2 55663  69.9991  98.2095 0003525 272.1858  87.8934 15.69929410 23528,6737.236,91.724,361.476,356.726,0.0
55663.0,STARLINK-5473,PAYLOAD,2023-07-15 02:24:09,15.69919311,0.000316,70.0003,95.7035,263.7983,96.2853,3.5753e-06,2.17e-06,0.0,0 STARLINK-5473,1 55663U 23021AM  23196.10010758  .00000217  00000-0  35753-5 0  9994,2 55663  70.0003  95.7035 0003160 263.7983  96.2853 15.69919311 23669,6737.265,91.724,361.259,357.001,0.0
55663.0,STARLINK-5473,PAYLOAD,2023-07-16 02:52:11,15.69916913,0.0003067,70.0007,92.8377,261.0826,99.0022,6.9757e-06,6.26e-06,0.0,0 STARLINK-5473,1 55663U 23021AM  23197.11957903  .00000626  00000-0  69757-5 0  9993,2 55663  70.0007  92.8377 0003067 261.0826  99.0022 15.69916913 23825,6737.272,91.725,361.203,357.07,0.0
55663.0,STARLINK-5473,PAYLOAD,2023-07-16 16:37:57,15.6993257,0.0003663,69.9999,91.2241,262.0432,98.0348,3.8878e-05,4.466e-05,0.0,0 STARLINK-5473,1 55663U 23021AM  23197.69302494  .00004466  00000-0  38878-4 0  9990,2 55663  69.9999  91.2241 0003663 262.0432  98.0348 15.69932570 23918,6737.227,91.724,361.56,356.624,0.0
55663.0,STARLINK-5473,PAYLOAD,2023-07-18 00:44:44,15.69938704,0.0003303,70.0002,87.462,267.2001,92.8817,5.5876e-05,6.515e-05,0.0,0 STARLINK-5473,1 55663U 23021AM  23199.03107052  .00006515  00000-0  55876-4 0  9997,2 55663  70.0002  87.4620 0003303 267.2001  92.8817 15.69938704 24126,6737.209,91.723,361.3,356.849,0.0
55663.0,STARLINK-5473,PAYLOAD,2023-07-18 02:16:30,15.69911027,0.0003207,70.0,87.2822,265.1641,94.9188,-3.5505e-05,-4.477e-05,0.0,0 STARLINK-5473,1 55663U 23021AM  23199.09479562 -.00004477  00000-0 -35505-4 0  9995,2 55663  70.0000  87.2822 0003207 265.1641  94.9188 15.69911027 24130,6737.289,91.725,361.314,356.993,0.0
55663.0,STARLINK-5473,PAYLOAD,2023-07-19 02:44:32,15.69924852,0.0003547,70.0014,84.4189,269.8915,90.1874,6.8162e-05,7.991e-05,0.0,0 STARLINK-5473,1 55663U 23021AM  23200.11426063  .00007991  00000-0  68162-4 0  9996,2 55663  70.0014  84.4189 0003547 269.8915  90.1874 15.69924852 24299,6737.249,91.724,361.504,356.724,0.0
55663.0,STARLINK-5473,PAYLOAD,2023-07-19 18:02:03,15.69923015,0.0003539,70.0014,82.6264,274.3739,85.7052,4.3018e-05,4.963e-05,0.0,0 STARLINK-5473,1 55663U 23021AM  23200.75143038  .00004963  00000-0  43018-4 0  9993,2 55663  70.0014  82.6264 0003539 274.3739  85.7052 15.69923015 24398,6737.254,91.724,361.504,356.735,0.0
55663.0,STARLINK-5473,PAYLOAD,2023-07-20 15:26:34,15.6995162,0.0003497,70.0002,80.1174,268.1376,91.9419,7.9132e-05,9.324e-05,0.0,0 STARLINK-5473,1 55663U 23021AM  23201.64344960  .00009324  00000-0  79132-4 0  9991,2 55663  70.0002  80.1174 0003497 268.1376  91.9419 15.69951620 24534,6737.172,91.723,361.393,356.681,0.0
55663.0,STARLINK-5473,PAYLOAD,2023-07-20 20:01:50,15.69909146,0.0003418,70.0002,79.5793,270.4565,89.6239,-6.3208e-05,-7.801e-05,0.0,0 STARLINK-5473,1 55663U 23021AM  23201.83460896 -.00007801  00000-0 -63208-4 0  9996,2 55663  70.0002  79.5793 0003418 270.4565  89.6239 15.69909146 24565,6737.294,91.725,361.462,356.856,0.0
55663.0,STARLINK-5473,PAYLOAD,2023-07-21 03:40:35,15.6991747,0.0003599,69.9967,78.6791,268.5204,91.5579,-3.1595e-05,-4.009e-05,0.0,0 STARLINK-5473,1 55663U 23021AM  23202.15318999 -.00004009  00000-0 -31595-4 0  9999,2 55663  69.9967  78.6791 0003599 268.5204  91.5579 15.69917470 24612,6737.27,91.725,361.56,356.71,0.0
55663.0,STARLINK-5473,PAYLOAD,2023-07-24 02:01:12,15.6992194,0.0002426,70.0002,70.4405,269.2187,90.8731,2.3612e-05,2.627e-05,0.0,0 STARLINK-5473,1 55663U 23021AM  23205.08417099  .00002627  00000-0  23612-4 0  9998,2 55663  70.0002  70.4405 0002426 269.2187  90.8731 15.69921940 25387,6737.257,91.724,360.757,357.488,0.0
55663.0,STARLINK-5473,PAYLOAD,2023-07-25 02:29:13,15.69926729,0.0004344,69.998,67.5751,263.8161,96.254,1.5746e-06,-2.4e-07,0.0,0 STARLINK-5473,1 55663U 23021AM  23206.10362840 -.00000024  00000-0  15746-5 0  9995,2 55663  69.9980  67.5751 0004344 263.8161  96.2540 15.69926729 25549,6737.244,91.724,362.035,356.182,0.0
55663.0,STARLINK-5473,PAYLOAD,2023-07-25 23:53:45,15.69919664,0.0004158,69.9989,65.0666,258.0978,101.9751,3.5377e-06,2.12e-06,0.0,0 STARLINK-5473,1 55663U 23021AM  23206.99566694  .00000212  00000-0  35377-5 0  9995,2 55663  69.9989  65.0666 0004158 258.0978 101.9751 15.69919664 25684,6737.264,91.724,361.93,356.327,0.0
55663.0,STARLINK-5473,PAYLOAD,2023-07-26 18:14:41,15.69993704,0.0005284,69.9983,62.9139,245.6629,114.4015,0.00011132,0.00013237,0.0,0 STARLINK-5473,1 55663U 23021AM  23207.76020652  .00013237  00000-0  11132-3 0  9992,2 55663  69.9983  62.9139 0005284 245.6629 114.4015 15.69993704 25493,6737.052,91.72,362.477,355.357,0.0
55663.0,STARLINK-5473,PAYLOAD,2023-07-26 22:48:17,15.72460453,0.0016976,69.9968,62.3728,257.9461,101.9834,0.0047043,0.0068614,0.0,0 STARLINK-5473,1 55663U 23021AM  23207.95020789  .00686140  00000-0  47043-2 0  9992,2 55663  69.9968  62.3728 0016976 257.9461 101.9834 15.72460453 25836,6730.004,91.576,363.294,340.445,0.0
55663.0,STARLINK-5473,PAYLOAD,2023-07-27 00:22:33,15.69094308,0.0003479,69.9989,62.203,272.4026,87.6771,-0.0014282,-0.00162984,0.0,0 STARLINK-5473,1 55663U 23021AM  23208.01566683 -.00162984  00000-0 -14282-2 0  9994,2 55663  69.9989  62.2030 0003479 272.4026  87.6771 15.69094308 25532,6739.626,91.773,363.836,359.146,0.0
55663.0,STARLINK-5473,PAYLOAD,2023-07-27 08:01:32,15.69079471,0.0002473,69.999,61.3069,345.7246,14.3879,-0.0012386,-0.00141614,0.0,0 STARLINK-5473,1 55663U 23021AM  23208.33440946 -.00141614  00000-0 -12386-2 0  9992,2 55663  69.9990  61.3069 0002473 345.7246  14.3879 15.69079471 25582,6739.669,91.774,363.2,359.867,0.0
55663.0,STARLINK-5473,PAYLOAD,2023-07-27 22:00:00,15.66655931,0.0003414,70.0001,59.6772,276.3613,127.7594,-0.009033,-0.00858022,0.0,0 STARLINK-5473,1 55663U 23021AM  23208.91667824 -.00858022  00000-0 -90330-2 0  9995,2 55663  70.0001  59.6772 0003414 276.3613 127.7594 15.66655931 25684,6746.618,91.916,370.786,366.179,0.0
55663.0,STARLINK-5473,PAYLOAD,2023-07-28 14:00:01,15.65406922,0.0003261,70.0,57.8141,267.6611,293.7567,-0.01048,-0.00952179,0.0,0 STARLINK-5473,1 55663U 23021AM  23209.58334491 -.00952179  00000-0 -10480-1 0  9995,2 55663  70.0000  57.8141 0003261 267.6611 293.7567 15.65406922 25782,6750.206,91.989,374.272,369.869,0.0
55663.0,STARLINK-5473,PAYLOAD,2023-07-29 14:00:01,15.63446823,0.0003394,69.9996,55.0252,267.9289,163.6659,-0.011289,-0.00949096,0.0,0 STARLINK-5473,1 55663U 23021AM  23210.58335648 -.00949096  00000-0 -11289-1 0  9994,2 55663  69.9996  55.0252 0003394 267.9289 163.6659 15.63446823 25944,6755.846,92.104,380.004,375.418,0.0
55663.0,STARLINK-5473,PAYLOAD,2023-07-30 14:00:01,15.61491722,0.0003474,69.9995,52.2447,266.6529,27.9452,-0.012185,-0.00948991,0.0,0 STARLINK-5473,1 55663U 23021AM  23211.58334491 -.00948991  00000-0 -12185-1 0  9999,2 55663  69.9995  52.2447 0003474 266.6529  27.9452 15.61491722 26096,6761.484,92.22,385.698,381.0,0.0
55663.0,STARLINK-5473,PAYLOAD,2023-07-31 14:00:01,15.59528981,0.0003489,69.9993,49.4719,267.5749,243.0547,-0.012996,-0.00939405,0.0,0 STARLINK-5473,1 55663U 23021AM  23212.58334491 -.00939405  00000-0 -12996-1 0  9990,2 55663  69.9993  49.4719 0003489 267.5749 243.0547 15.59528981 26253,6767.156,92.336,391.382,386.66,0.0
55663.0,STARLINK-5473,PAYLOAD,2023-08-01 22:00:00,15.56870426,0.0003622,69.9987,45.7872,276.2597,151.4709,-0.013061,-0.00861023,0.0,0 STARLINK-5473,1 55663U 23021AM  23213.91667824 -.00861023  00000-0 -13061-1 0  9991,2 55663  69.9987  45.7872 0003622 276.2597 151.4709 15.56870426 26468,6774.858,92.493,399.177,394.269,0.0
